[
    {
        "Altitude(m)": 713702.1736974204,
        "Argument of Periapsis(deg)": 0.011390121186627068,
        "Eccentricity": 0.0,
        "Inclination(deg)": 45.0,
        "Latitude(deg)": -35.02493851022119,
        "Longitude(deg)": -69.96804260222571,
        "Mean Anomaly(deg)": -53.92128335251917,
        "RAAN(deg)": 74.9892480585418,
        "Satellite Name": "Constellation 1 348",
        "Satellite Number": 348,
        "Semi-Major Axis(m)": 7083131.272910544,
        "Time(s)": 190
    },
    {
        "Altitude(m)": 713689.6461190005,
        "Argument of Periapsis(deg)": 0.011450069192872472,
        "Eccentricity": 0.0,
        "Inclination(deg)": 45.0,
        "Latitude(deg)": -34.9941015183303,
        "Longitude(deg)": -69.90854383773664,
        "Mean Anomaly(deg)": -53.86058221226928,
        "RAAN(deg)": 74.98919146937624,
        "Satellite Name": "Constellation 1 348",
        "Satellite Number": 348,
        "Semi-Major Axis(m)": 7083131.272910544,
        "Time(s)": 191
    },
    {
        "Altitude(m)": 713677.107413016,
        "Argument of Periapsis(deg)": 0.01151001719911788,
        "Eccentricity": 0.0,
        "Inclination(deg)": 45.0,
        "Latitude(deg)": -34.96323102052627,
        "Longitude(deg)": -69.8490926457736,
        "Mean Anomaly(deg)": -53.79988107201936,
        "RAAN(deg)": 74.98913488021066,
        "Satellite Name": "Constellation 1 348",
        "Satellite Number": 348,
        "Semi-Major Axis(m)": 7083131.272910544,
        "Time(s)": 192
    },
    {
        "Altitude(m)": 713664.5576244474,
        "Argument of Periapsis(deg)": 0.011569965205363285,
        "Eccentricity": 0.0,
        "Inclination(deg)": 45.0,
        "Latitude(deg)": -34.932327079115495,
        "Longitude(deg)": -69.78968915555399,
        "Mean Anomaly(deg)": -53.73917993176945,
        "RAAN(deg)": 74.98907829104509,
        "Satellite Name": "Constellation 1 348",
        "Satellite Number": 348,
        "Semi-Major Axis(m)": 7083131.272910544,
        "Time(s)": 193
    },
    {
        "Altitude(m)": 713651.9967983189,
        "Argument of Periapsis(deg)": 0.01162991321160869,
        "Eccentricity": 0.0,
        "Inclination(deg)": 45.0,
        "Latitude(deg)": -34.901389756341,
        "Longitude(deg)": -69.73033299180544,
        "Mean Anomaly(deg)": -53.67847879151959,
        "RAAN(deg)": 74.98902170187951,
        "Satellite Name": "Constellation 1 348",
        "Satellite Number": 348,
        "Semi-Major Axis(m)": 7083131.272910544,
        "Time(s)": 194
    },
    {
        "Altitude(m)": 713639.4249796668,
        "Argument of Periapsis(deg)": 0.011689861217854095,
        "Eccentricity": 0.0,
        "Inclination(deg)": 45.0,
        "Latitude(deg)": -34.870419114382834,
        "Longitude(deg)": -69.67102428335052,
        "Mean Anomaly(deg)": -53.617777651269684,
        "RAAN(deg)": 74.98896511271396,
        "Satellite Name": "Constellation 1 348",
        "Satellite Number": 348,
        "Semi-Major Axis(m)": 7083131.272910544,
        "Time(s)": 195
    },
    {
        "Altitude(m)": 713626.8422135937,
        "Argument of Periapsis(deg)": 0.0117498092240995,
        "Eccentricity": 0.0,
        "Inclination(deg)": 45.0,
        "Latitude(deg)": -34.839415215357604,
        "Longitude(deg)": -69.61176299071886,
        "Mean Anomaly(deg)": -53.55707651101972,
        "RAAN(deg)": 74.98890852354839,
        "Satellite Name": "Constellation 1 348",
        "Satellite Number": 348,
        "Semi-Major Axis(m)": 7083131.272910544,
        "Time(s)": 196
    },
    {
        "Altitude(m)": 713614.2485452011,
        "Argument of Periapsis(deg)": 0.011809757230344905,
        "Eccentricity": 0.0,
        "Inclination(deg)": 45.0,
        "Latitude(deg)": -34.80837812131845,
        "Longitude(deg)": -69.5525490742459,
        "Mean Anomaly(deg)": -53.496375370769854,
        "RAAN(deg)": 74.98885193438281,
        "Satellite Name": "Constellation 1 348",
        "Satellite Number": 348,
        "Semi-Major Axis(m)": 7083131.272910544,
        "Time(s)": 197
    },
    {
        "Altitude(m)": 713601.6440196529,
        "Argument of Periapsis(deg)": 0.011869705236590313,
        "Eccentricity": 0.0,
        "Inclination(deg)": 45.0,
        "Latitude(deg)": -34.77730789425462,
        "Longitude(deg)": -69.49338249407354,
        "Mean Anomaly(deg)": -53.435674230519936,
        "RAAN(deg)": 74.98879534521724,
        "Satellite Name": "Constellation 1 348",
        "Satellite Number": 348,
        "Semi-Major Axis(m)": 7083131.272910544,
        "Time(s)": 198
    },
    {
        "Altitude(m)": 713589.0286821256,
        "Argument of Periapsis(deg)": 0.011929653242835719,
        "Eccentricity": 0.0,
        "Inclination(deg)": 45.0,
        "Latitude(deg)": -34.746204596091644,
        "Longitude(deg)": -69.43426321015187,
        "Mean Anomaly(deg)": -53.374973090270096,
        "RAAN(deg)": 74.98873875605167,
        "Satellite Name": "Constellation 1 348",
        "Satellite Number": 348,
        "Semi-Major Axis(m)": 7083131.272910544,
        "Time(s)": 199
    }
]